[{"OBJECT_NAME":"QIANFAN-45","OBJECT_ID":"2024-232K","EPOCH":"2026-03-09T21:15:38.536416","MEAN_MOTION":13.51007368,"ECCENTRICITY":0.00128201,"INCLINATION":89.0071,"RA_OF_ASC_NODE":32.4286,"ARG_OF_PERICENTER":307.8822,"MEAN_ANOMALY":52.1169,"EPHEMERIS_TYPE":0,"CLASSIFICATION_TYPE":"U","NORAD_CAT_ID":62246,"ELEMENT_SET_NO":999,"REV_AT_EPOCH":11102,"BSTAR":0.00029429533,"MEAN_MOTION_DOT":2.02e-6,"MEAN_MOTION_DDOT":0},{"OBJECT_NAME":"FENGYUN 1C DEB","OBJECT_ID":"1999-025DVM","EPOCH":"2026-02-27T07:44:55.135968","MEAN_MOTION":13.82020311,"ECCENTRICITY":0.01506517,"INCLINATION":98.838,"RA_OF_ASC_NODE":99.0126,"ARG_OF_PERICENTER":151.2267,"MEAN_ANOMALY":209.7303,"EPHEMERIS_TYPE":0,"CLASSIFICATION_TYPE":"U","NORAD_CAT_ID":36236,"ELEMENT_SET_NO":999,"REV_AT_EPOCH":60805,"BSTAR":0.00030510037,"MEAN_MOTION_DOT":3.18e-6,"MEAN_MOTION_DDOT":0}]
